GSAT0213 (GALILEO 17)
1 41861U 16069C   25328.83567665  .00000043  00000+0  00000+0 0  9993
2 41861  55.3713 106.7492 0001891 284.4454  75.5045  1.70474829 56037